ONEWEB-0210             
1 48787U 21045W   24294.26812904 -.00000033  00000+0 -12231-3 0  9998
2 48787  87.9112  19.5766 0002549 110.1172 250.0233 13.15546752164781
ONEWEB-0214             
1 48788U 21045X   24294.27764459 -.00000047  00000+0 -15772-3 0  9999
2 48788  87.9126  19.5660 0002340 111.3815 248.7565 13.15547207164751
ONEWEB-0221             
1 48789U 21045Y   24294.28398157  .00000061  00000+0  12823-3 0  9997
2 48789  87.9128  19.5858 0002020  97.0861 263.0499 13.15547400164840
ONEWEB-0213             
1 48790U 21045Z   24294.27289243  .00000040  00000+0  72321-4 0  9990
2 48790  87.9125  19.5993 0002211  99.3234 260.8146 13.15547624164909
ONEWEB-0212             
1 48791U 21045AA  24294.24991414  .00000141  00000+0  34077-3 0  9995
2 48791  87.9127  19.5887 0001789  97.9820 262.1513 13.15547804164899
ONEWEB-0227             
1 48792U 21045AB  24294.32518068  .00000159  00000+0  38794-3 0  9994
2 48792  87.9124  19.5880 0001990  98.1161 262.0195 13.15548485164852
ONEWEB-0226             
1 48793U 21045AC  24294.31883140 -.00000072  00000+0 -22419-3 0  9993
2 48793  87.9119  19.5948 0002341 105.0400 255.0990 13.15550654164820
ONEWEB-0224             
1 48794U 21045AD  24294.28239496  .00000058  00000+0  11963-3 0  9993
2 48794  87.9127  19.6286 0002285  72.6877 287.4503 13.15547449164748
